STARLINK-34211          
1 64255U 25119Y   26067.70083986  .00036251  00000+0  13205-2 0  9991
2 64255  42.9990 313.0169 0000806 273.6098  86.4661 15.27578031 44018
REAL                    
1 64875U 25154G   26068.72233414  .00022901  00000+0  82904-3 0  9994
2 64875  97.4133 137.2581 0001853 118.5876 241.5550 15.28408058 34830
